{
  "norad_id": 63292,
  "name": "2025-055B",
  "history": [
    {
      "epoch": "2026-03-27T07:41:07.657728",
      "apogee_km": 515.611416651418,
      "perigee_km": 502.7362777536582,
      "latitude_deg": -82.95369255158572,
      "longitude_deg": 83.94184191990644,
      "semi_major_axis_km": 6887.310847202538,
      "eccentricity": 0.0009347,
      "inclination_deg": 97.6373,
      "raan_deg": 226.9768,
      "arg_perigee_deg": 80.3386,
      "mean_anomaly_deg": 279.8903,
      "mean_motion_rev_day": 15.18896688
    }
  ]
}