{"fetched_at":"2026-03-29T02:12:04Z","count":15717,"tles":[{"name":"2025-055B","line1":"1 63292U 25055B   26086.32022752  .00012069  00000+0  58072-3 0  9996","line2":"2 63292  97.6373 226.9768 0009347  80.3386 279.8903 15.18896688 56706","category":"Other"}]}